{"type": "FeatureCollection", "features": [ {"type": "Feature", "properties": {"norad_id": 66677, "name": "TRANSPORTER-15 M", "group": "last-30-days", "lat": -9.886101017562336, "lon": 69.06014153418845, "alt_km": 517.4593254280444, "timestamp": "2025-12-22T04:03:37.886413+00:00", "meta": {"OBJECT_NAME": "TRANSPORTER-15 M", "OBJECT_ID": "2025-276M", "EPOCH": "2025-12-21T18:36:31.271616", "MEAN_MOTION": 15.17442741, "ECCENTRICITY": 0.0003889, "INCLINATION": 97.4388, "RA_OF_ASC_NODE": 67.3686, "ARG_OF_PERICENTER": 269.2264, "MEAN_ANOMALY": 90.8524, "EPHEMERIS_TYPE": 0, "CLASSIFICATION_TYPE": "U", "NORAD_CAT_ID": 66677, "ELEMENT_SET_NO": 999, "REV_AT_EPOCH": 349, "BSTAR": 0.00061198, "MEAN_MOTION_DOT": 0.00012192, "MEAN_MOTION_DDOT": 0}, "tle": {"line1": "1 66677U 25276M   25355.77536194  .00012192  00000+0  61198-3 0  9998", "line2": "2 66677  97.4388  67.3686 0003889 269.2264  90.8524 15.17442741  3498"}}, "geometry": {"type": "Point", "coordinates": [69.06014153418845, -9.886101017562336]}}, {"type": "Feature", "properties": {"norad_id": 66678, "name": "TRANSPORTER-15 N", "group": "last-30-days", "lat": -46.955506860786635, "lon": 75.79747252203329, "alt_km": 520.537717166073, "timestamp": "2025-12-22T04:03:37.886425+00:00", "meta": {"OBJECT_NAME": "TRANSPORTER-15 N", "OBJECT_ID": "2025-276N", "EPOCH": "2025-12-21T12:26:13.184160", "MEAN_MOTION": 15.16833494, "ECCENTRICITY": 0.0004855, "INCLINATION": 97.4427, "RA_OF_ASC_NODE": 67.1124, "ARG_OF_PERICENTER": 255.3791, "MEAN_ANOMALY": 104.6904, "EPHEMERIS_TYPE": 0, "CLASSIFICATION_TYPE": "U", "NORAD_CAT_ID": 66678, "ELEMENT_SET_NO": 999, "REV_AT_EPOCH": 345, "BSTAR": 0.00038657, "MEAN_MOTION_DOT": 7.54e-05, "MEAN_MOTION_DDOT": 0}, "tle": {"line1": "1 66678U 25276N   25355.51820815  .00007540  00000+0  38657-3 0  9992", "line2": "2 66678  97.4427  67.1124 0004855 255.3791 104.6904 15.16833494  3453"}}, "geometry": {"type": "Point", "coordinates": [75.79747252203329, -46.955506860786635]}}, {"type": "Feature", "properties": {"norad_id": 66679, "name": "TRANSPORTER-15 P", "group": "last-30-days", "lat": -49.0077244639719, "lon": 76.38110971838306, "alt_km": 515.3884813799123, "timestamp": "2025-12-22T04:03:37.886436+00:00", "meta": {"OBJECT_NAME": "TRANSPORTER-15 P", "OBJECT_ID": "2025-276P", "EPOCH": "2025-12-21T10:52:32.598048", "MEAN_MOTION": 15.17590497, "ECCENTRICITY": 0.00037983, "INCLINATION": 97.4397, "RA_OF_ASC_NODE": 67.0293, "ARG_OF_PERICENTER": 283.1797, "MEAN_ANOMALY": 76.9013, "EPHEMERIS_TYPE": 0, "CLASSIFICATION_TYPE": "U", "NORAD_CAT_ID": 66679, "ELEMENT_SET_NO": 999, "REV_AT_EPOCH": 344, "BSTAR": 0.026256086, "MEAN_MOTION_DOT": 0.0056315, "MEAN_MOTION_DDOT": 0}, "tle": {"line1": "1 66679U 25276P   25355.45315507  .00563150  00000+0  26256-1 0  9997", "line2": "2 66679  97.4397  67.0293 0003798 283.1797  76.9013 15.17590497  3441"}}, "geometry": {"type": "Point", "coordinates": [76.38110971838306, -49.0077244639719]}}, {"type": "Feature", "properties": {"norad_id": 66680, "name": "TRANSPORTER-15 Q", "group": "last-30-days", "lat": -45.898369157413605, "lon": 75.50017621275907, "alt_km": 520.8168559555388, "timestamp": "2025-12-22T04:03:37.886445+00:00", "meta": {"OBJECT_NAME": "TRANSPORTER-15 Q", "OBJECT_ID": "2025-276Q", "EPOCH": "2025-12-21T14:00:55.102176", "MEAN_MOTION": 15.16812057, "ECCENTRICITY": 0.0004694, "INCLINATION": 97.4418, "RA_OF_ASC_NODE": 67.1744, "ARG_OF_PERICENTER": 252.4051, "MEAN_ANOMALY": 107.6669, "EPHEMERIS_TYPE": 0, "CLASSIFICATION_TYPE": "U", "NORAD_CAT_ID": 66680, "ELEMENT_SET_NO": 999, "REV_AT_EPOCH": 346, "BSTAR": 0.00036465, "MEAN_MOTION_DOT": 7.104e-05, "MEAN_MOTION_DDOT": 0}, "tle": {"line1": "1 66680U 25276Q   25355.58397109  .00007104  00000+0  36465-3 0  9998", "line2": "2 66680  97.4418  67.1744 0004694 252.4051 107.6669 15.16812057  3466"}}, "geometry": {"type": "Point", "coordinates": [75.50017621275907, -45.898369157413605]}}, {"type": "Feature", "properties": {"norad_id": 66681, "name": "TRANSPORTER-15 R", "group": "last-30-days", "lat": -19.593247396423948, "lon": 70.40175702164001, "alt_km": 517.0949645500386, "timestamp": "2025-12-22T04:03:37.886457+00:00", "meta": {"OBJECT_NAME": "TRANSPORTER-15 R", "OBJECT_ID": "2025-276R", "EPOCH": "2025-12-21T18:39:11.469312", "MEAN_MOTION": 15.17615848, "ECCENTRICITY": 0.0003279, "INCLINATION": 97.4338, "RA_OF_ASC_NODE": 67.3531, "ARG_OF_PERICENTER": 272.5567, "MEAN_ANOMALY": 87.5291, "EPHEMERIS_TYPE": 0, "CLASSIFICATION_TYPE": "U", "NORAD_CAT_ID": 66681, "ELEMENT_SET_NO": 999, "REV_AT_EPOCH": 349, "BSTAR": 0.0079459, "MEAN_MOTION_DOT": 0.00163222, "MEAN_MOTION_DDOT": 0}, "tle": {"line1": "1 66681U 25276R   25355.77721608  .00163222  00000+0  79459-2 0  9998", "line2": "2 66681  97.4338  67.3531 0003279 272.5567  87.5291 15.17615848  3497"}}, "geometry": {"type": "Point", "coordinates": [70.40175702164001, -19.593247396423948]}}, {"type": "Feature", "properties": {"norad_id": 66682, "name": "TRANSPORTER-15 S", "group": "last-30-days", "lat": -31.691841714312222, "lon": 72.39868586682299, "alt_km": 520.4459015947659, "timestamp": "2025-12-22T04:03:37.886467+00:00", "meta": {"OBJECT_NAME": "TRANSPORTER-15 S", "OBJECT_ID": "2025-276S", "EPOCH": "2025-12-21T18:42:12.661344", "MEAN_MOTION": 15.17108328, "ECCENTRICITY": 0.0004813, "INCLINATION": 97.4459, "RA_OF_ASC_NODE": 67.3841, "ARG_OF_PERICENTER": 243.8488, "MEAN_ANOMALY": 116.2251, "EPHEMERIS_TYPE": 0, "CLASSIFICATION_TYPE": "U", "NORAD_CAT_ID": 66682, "ELEMENT_SET_NO": 999, "REV_AT_EPOCH": 349, "BSTAR": 0.00043777, "MEAN_MOTION_DOT": 8.616e-05, "MEAN_MOTION_DDOT": 0}, "tle": {"line1": "1 66682U 25276S   25355.77931321  .00008616  00000+0  43777-3 0  9994", "line2": "2 66682  97.4459  67.3841 0004813 243.8488 116.2251 15.17108328  3490"}}, "geometry": {"type": "Point", "coordinates": [72.39868586682299, -31.691841714312222]}}, {"type": "Feature", "properties": {"norad_id": 66683, "name": "TRANSPORTER-15 T", "group": "last-30-days", "lat": -35.854529109556886, "lon": 73.18721019564633, "alt_km": 520.6431020820582, "timestamp": "2025-12-22T04:03:37.886477+00:00", "meta": {"OBJECT_NAME": "TRANSPORTER-15 T", "OBJECT_ID": "2025-276T", "EPOCH": "2025-12-21T18:43:16.974048", "MEAN_MOTION": 15.16998166, "ECCENTRICITY": 0.0004693, "INCLINATION": 97.4456, "RA_OF_ASC_NODE": 67.3819, "ARG_OF_PERICENTER": 246.443, "MEAN_ANOMALY": 113.6311, "EPHEMERIS_TYPE": 0, "CLASSIFICATION_TYPE": "U", "NORAD_CAT_ID": 66683, "ELEMENT_SET_NO": 999, "REV_AT_EPOCH": 349, "BSTAR": 0.00043197, "MEAN_MOTION_DOT": 8.474e-05, "MEAN_MOTION_DDOT": 0}, "tle": {"line1": "1 66683U 25276T   25355.78005757  .00008474  00000+0  43197-3 0  9999", "line2": "2 66683  97.4456  67.3819 0004693 246.4430 113.6311 15.16998166  3499"}}, "geometry": {"type": "Point", "coordinates": [73.18721019564633, -35.854529109556886]}}, {"type": "Feature", "properties": {"norad_id": 66684, "name": "TRANSPORTER-15 U", "group": "last-30-days", "lat": -19.632646700563424, "lon": 70.45308363288056, "alt_km": 519.6491120603687, "timestamp": "2025-12-22T04:03:37.886487+00:00", "meta": {"OBJECT_NAME": "TRANSPORTER-15 U", "OBJECT_ID": "2025-276U", "EPOCH": "2025-12-21T17:04:05.431872", "MEAN_MOTION": 15.17280431, "ECCENTRICITY": 0.0004476, "INCLINATION": 97.4481, "RA_OF_ASC_NODE": 67.328, "ARG_OF_PERICENTER": 244.9496, "MEAN_ANOMALY": 115.1273, "EPHEMERIS_TYPE": 0, "CLASSIFICATION_TYPE": "U", "NORAD_CAT_ID": 66684, "ELEMENT_SET_NO": 999, "REV_AT_EPOCH": 348, "BSTAR": 0.00047765, "MEAN_MOTION_DOT": 9.454e-05, "MEAN_MOTION_DDOT": 0}, "tle": {"line1": "1 66684U 25276U   25355.71117398  .00009454  00000+0  47765-3 0  9992", "line2": "2 66684  97.4481  67.3280 0004476 244.9496 115.1273 15.17280431  3487"}}, "geometry": {"type": "Point", "coordinates": [70.45308363288056, -19.632646700563424]}}, {"type": "Feature", "properties": {"norad_id": 66685, "name": "TRANSPORTER-15 V", "group": "last-30-days", "lat": -12.959613044997598, "lon": 69.48858135592667, "alt_km": 517.8556581732873, "timestamp": "2025-12-22T04:03:37.886497+00:00", "meta": {"OBJECT_NAME": "TRANSPORTER-15 V", "OBJECT_ID": "2025-276V", "EPOCH": "2025-12-21T18:37:20.141184", "MEAN_MOTION": 15.17431271, "ECCENTRICITY": 0.0004384, "INCLINATION": 97.4422, "RA_OF_ASC_NODE": 67.3784, "ARG_OF_PERICENTER": 264.3986, "MEAN_ANOMALY": 95.6747, "EPHEMERIS_TYPE": 0, "CLASSIFICATION_TYPE": "U", "NORAD_CAT_ID": 66685, "ELEMENT_SET_NO": 999, "REV_AT_EPOCH": 349, "BSTAR": 0.00081003, "MEAN_MOTION_DOT": 0.00016164, "MEAN_MOTION_DDOT": 0}, "tle": {"line1": "1 66685U 25276V   25355.77592756  .00016164  00000+0  81003-3 0  9993", "line2": "2 66685  97.4422  67.3784 0004384 264.3986  95.6747 15.17431271  3499"}}, "geometry": {"type": "Point", "coordinates": [69.48858135592667, -12.959613044997598]}}, {"type": "Feature", "properties": {"norad_id": 66686, "name": "TRANSPORTER-15 W", "group": "last-30-days", "lat": -31.416224044126086, "lon": 72.34922712265391, "alt_km": 520.6056829982799, "timestamp": "2025-12-22T04:03:37.886511+00:00", "meta": {"OBJECT_NAME": "TRANSPORTER-15 W", "OBJECT_ID": "2025-276W", "EPOCH": "2025-12-21T18:42:05.498784", "MEAN_MOTION": 15.1698785, "ECCENTRICITY": 0.0004077, "INCLINATION": 97.4458, "RA_OF_ASC_NODE": 67.3845, "ARG_OF_PERICENTER": 248.927, "MEAN_ANOMALY": 111.1528, "EPHEMERIS_TYPE": 0, "CLASSIFICATION_TYPE": "U", "NORAD_CAT_ID": 66686, "ELEMENT_SET_NO": 999, "REV_AT_EPOCH": 349, "BSTAR": 0.00030363, "MEAN_MOTION_DOT": 5.933e-05, "MEAN_MOTION_DDOT": 0}, "tle": {"line1": "1 66686U 25276W   25355.77923031  .00005933  00000+0  30363-3 0  9993", "line2": "2 66686  97.4458  67.3845 0004077 248.9270 111.1528 15.16987850  3499"}}, "geometry": {"type": "Point", "coordinates": [72.34922712265391, -31.416224044126086]}}]}